CCSDS_OMM_VERS = 2.0
CREATION_DATE  = 
ORIGINATOR     = 

OBJECT_NAME    = STARLINK-35401
OBJECT_ID      = 2025-235K
CENTER_NAME    = EARTH
REF_FRAME      = TEME
TIME_SYSTEM    = UTC
MEAN_ELEMENT_THEORY = SGP/SGP4

EPOCH          = 2025-11-06T18:00:00.998784
MEAN_MOTION    = 15.60722699
ECCENTRICITY   = .0001198
INCLINATION    = 53.1598
RA_OF_ASC_NODE = 99.2775
ARG_OF_PERICENTER = 61.4303
MEAN_ANOMALY   = 61.9816

EPHEMERIS_TYPE = 0
CLASSIFICATION_TYPE = U
NORAD_CAT_ID   = 66067
ELEMENT_SET_NO = 999
REV_AT_EPOCH   = 404
BSTAR          = -.26156E-1
MEAN_MOTION_DOT = -.1950907E-1
MEAN_MOTION_DDOT = 0

CCSDS_OMM_VERS = 2.0
CREATION_DATE  = 
ORIGINATOR     = 

OBJECT_NAME    = STARLINK-35422
OBJECT_ID      = 2025-235L
CENTER_NAME    = EARTH
REF_FRAME      = TEME
TIME_SYSTEM    = UTC
MEAN_ELEMENT_THEORY = SGP/SGP4

EPOCH          = 2025-11-06T18:00:00.998784
MEAN_MOTION    = 15.60723910
ECCENTRICITY   = .0001268
INCLINATION    = 53.1597
RA_OF_ASC_NODE = 99.2735
ARG_OF_PERICENTER = 64.5720
MEAN_ANOMALY   = 60.7567

EPHEMERIS_TYPE = 0
CLASSIFICATION_TYPE = U
NORAD_CAT_ID   = 66068
ELEMENT_SET_NO = 999
REV_AT_EPOCH   = 404
BSTAR          = -.26178E-1
MEAN_MOTION_DOT = -.1952508E-1
MEAN_MOTION_DDOT = 0

CCSDS_OMM_VERS = 2.0
CREATION_DATE  = 
ORIGINATOR     = 

OBJECT_NAME    = STARLINK-35279
OBJECT_ID      = 2025-235M
CENTER_NAME    = EARTH
REF_FRAME      = TEME
TIME_SYSTEM    = UTC
MEAN_ELEMENT_THEORY = SGP/SGP4

EPOCH          = 2025-11-06T18:00:00.998784
MEAN_MOTION    = 15.60720152
ECCENTRICITY   = .0001245
INCLINATION    = 53.1598
RA_OF_ASC_NODE = 99.2697
ARG_OF_PERICENTER = 65.2432
MEAN_ANOMALY   = 62.0053

EPHEMERIS_TYPE = 0
CLASSIFICATION_TYPE = U
NORAD_CAT_ID   = 66069
ELEMENT_SET_NO = 999
REV_AT_EPOCH   = 409
BSTAR          = -.26124E-1
MEAN_MOTION_DOT = -.1948707E-1
MEAN_MOTION_DDOT = 0

CCSDS_OMM_VERS = 2.0
CREATION_DATE  = 
ORIGINATOR     = 

OBJECT_NAME    = STARLINK-35295
OBJECT_ID      = 2025-235N
CENTER_NAME    = EARTH
REF_FRAME      = TEME
TIME_SYSTEM    = UTC
MEAN_ELEMENT_THEORY = SGP/SGP4

EPOCH          = 2025-11-06T18:00:00.998784
MEAN_MOTION    = 15.60724071
ECCENTRICITY   = .0001272
INCLINATION    = 53.1598
RA_OF_ASC_NODE = 99.2626
ARG_OF_PERICENTER = 65.0026
MEAN_ANOMALY   = 66.0756

EPHEMERIS_TYPE = 0
CLASSIFICATION_TYPE = U
NORAD_CAT_ID   = 66070
ELEMENT_SET_NO = 999
REV_AT_EPOCH   = 409
BSTAR          = -.26164E-1
MEAN_MOTION_DOT = -.1951583E-1
MEAN_MOTION_DDOT = 0

CCSDS_OMM_VERS = 2.0
CREATION_DATE  = 
ORIGINATOR     = 

OBJECT_NAME    = STARLINK-35323
OBJECT_ID      = 2025-235P
CENTER_NAME    = EARTH
REF_FRAME      = TEME
TIME_SYSTEM    = UTC
MEAN_ELEMENT_THEORY = SGP/SGP4

EPOCH          = 2025-11-06T18:00:00.998784
MEAN_MOTION    = 15.60723090
ECCENTRICITY   = .0001258
INCLINATION    = 53.1600
RA_OF_ASC_NODE = 99.2656
ARG_OF_PERICENTER = 65.0739
MEAN_ANOMALY   = 64.0892

EPHEMERIS_TYPE = 0
CLASSIFICATION_TYPE = U
NORAD_CAT_ID   = 66071
ELEMENT_SET_NO = 999
REV_AT_EPOCH   = 409
BSTAR          = -.26166E-1
MEAN_MOTION_DOT = -.195162E-1
MEAN_MOTION_DDOT = 0

CCSDS_OMM_VERS = 2.0
CREATION_DATE  = 
ORIGINATOR     = 

OBJECT_NAME    = STARLINK-35299
OBJECT_ID      = 2025-235Q
CENTER_NAME    = EARTH
REF_FRAME      = TEME
TIME_SYSTEM    = UTC
MEAN_ELEMENT_THEORY = SGP/SGP4

EPOCH          = 2025-11-06T18:00:00.998784
MEAN_MOTION    = 15.60722392
ECCENTRICITY   = .0001217
INCLINATION    = 53.1599
RA_OF_ASC_NODE = 99.2575
ARG_OF_PERICENTER = 65.0140
MEAN_ANOMALY   = 67.9830

EPHEMERIS_TYPE = 0
CLASSIFICATION_TYPE = U
NORAD_CAT_ID   = 66072
ELEMENT_SET_NO = 999
REV_AT_EPOCH   = 409
BSTAR          = -.26154E-1
MEAN_MOTION_DOT = -.1950808E-1
MEAN_MOTION_DDOT = 0

CCSDS_OMM_VERS = 2.0
CREATION_DATE  = 
ORIGINATOR     = 

OBJECT_NAME    = STARLINK-35274
OBJECT_ID      = 2025-235R
CENTER_NAME    = EARTH
REF_FRAME      = TEME
TIME_SYSTEM    = UTC
MEAN_ELEMENT_THEORY = SGP/SGP4

EPOCH          = 2025-11-06T18:00:00.998784
MEAN_MOTION    = 15.60719299
ECCENTRICITY   = .0001276
INCLINATION    = 53.1600
RA_OF_ASC_NODE = 99.2533
ARG_OF_PERICENTER = 62.8003
MEAN_ANOMALY   = 72.1145

EPHEMERIS_TYPE = 0
CLASSIFICATION_TYPE = U
NORAD_CAT_ID   = 66073
ELEMENT_SET_NO = 999
REV_AT_EPOCH   = 409
BSTAR          = -.2609E-1
MEAN_MOTION_DOT = -.1946403E-1
MEAN_MOTION_DDOT = 0

CCSDS_OMM_VERS = 2.0
CREATION_DATE  = 
ORIGINATOR     = 

OBJECT_NAME    = STARLINK-35321
OBJECT_ID      = 2025-235S
CENTER_NAME    = EARTH
REF_FRAME      = TEME
TIME_SYSTEM    = UTC
MEAN_ELEMENT_THEORY = SGP/SGP4

EPOCH          = 2025-11-06T18:00:00.998784
MEAN_MOTION    = 15.60723492
ECCENTRICITY   = .0001218
INCLINATION    = 53.1599
RA_OF_ASC_NODE = 99.2490
ARG_OF_PERICENTER = 69.0180
MEAN_ANOMALY   = 67.8125

EPHEMERIS_TYPE = 0
CLASSIFICATION_TYPE = U
NORAD_CAT_ID   = 66074
ELEMENT_SET_NO = 999
REV_AT_EPOCH   = 409
BSTAR          = -.26178E-1
MEAN_MOTION_DOT = -.1952402E-1
MEAN_MOTION_DDOT = 0

CCSDS_OMM_VERS = 2.0
CREATION_DATE  = 
ORIGINATOR     = 

OBJECT_NAME    = STARLINK-35131
OBJECT_ID      = 2025-235T
CENTER_NAME    = EARTH
REF_FRAME      = TEME
TIME_SYSTEM    = UTC
MEAN_ELEMENT_THEORY = SGP/SGP4

EPOCH          = 2025-11-06T18:00:00.998784
MEAN_MOTION    = 15.60724295
ECCENTRICITY   = .0001246
INCLINATION    = 53.1597
RA_OF_ASC_NODE = 99.2364
ARG_OF_PERICENTER = 69.7143
MEAN_ANOMALY   = 72.8664

EPHEMERIS_TYPE = 0
CLASSIFICATION_TYPE = U
NORAD_CAT_ID   = 66075
ELEMENT_SET_NO = 999
REV_AT_EPOCH   = 409
BSTAR          = -.2619E-1
MEAN_MOTION_DOT = -.1953263E-1
MEAN_MOTION_DDOT = 0

CCSDS_OMM_VERS = 2.0
CREATION_DATE  = 
ORIGINATOR     = 

OBJECT_NAME    = STARLINK-34801
OBJECT_ID      = 2025-235U
CENTER_NAME    = EARTH
REF_FRAME      = TEME
TIME_SYSTEM    = UTC
MEAN_ELEMENT_THEORY = SGP/SGP4

EPOCH          = 2025-11-06T18:00:00.998784
MEAN_MOTION    = 15.60722985
ECCENTRICITY   = .000127
INCLINATION    = 53.1600
RA_OF_ASC_NODE = 99.2449
ARG_OF_PERICENTER = 63.5197
MEAN_ANOMALY   = 75.2270

EPHEMERIS_TYPE = 0
CLASSIFICATION_TYPE = U
NORAD_CAT_ID   = 66076
ELEMENT_SET_NO = 999
REV_AT_EPOCH   = 409
BSTAR          = -.2616E-1
MEAN_MOTION_DOT = -.1951264E-1
MEAN_MOTION_DDOT = 0

CCSDS_OMM_VERS = 2.0
CREATION_DATE  = 
ORIGINATOR     = 

OBJECT_NAME    = STARLINK-35129
OBJECT_ID      = 2025-235V
CENTER_NAME    = EARTH
REF_FRAME      = TEME
TIME_SYSTEM    = UTC
MEAN_ELEMENT_THEORY = SGP/SGP4

EPOCH          = 2025-11-06T18:00:00.998784
MEAN_MOTION    = 15.60722451
ECCENTRICITY   = .0001196
INCLINATION    = 53.1597
RA_OF_ASC_NODE = 99.2416
ARG_OF_PERICENTER = 66.8851
MEAN_ANOMALY   = 73.7792

EPHEMERIS_TYPE = 0
CLASSIFICATION_TYPE = U
NORAD_CAT_ID   = 66077
ELEMENT_SET_NO = 999
REV_AT_EPOCH   = 409
BSTAR          = -.26157E-1
MEAN_MOTION_DOT = -.1950966E-1
MEAN_MOTION_DDOT = 0

CCSDS_OMM_VERS = 2.0
CREATION_DATE  = 
ORIGINATOR     = 

OBJECT_NAME    = STARLINK-35116
OBJECT_ID      = 2025-235W
CENTER_NAME    = EARTH
REF_FRAME      = TEME
TIME_SYSTEM    = UTC
MEAN_ELEMENT_THEORY = SGP/SGP4

EPOCH          = 2025-11-06T18:00:00.998784
MEAN_MOTION    = 15.60724286
ECCENTRICITY   = .0001221
INCLINATION    = 53.1600
RA_OF_ASC_NODE = 99.2278
ARG_OF_PERICENTER = 68.5291
MEAN_ANOMALY   = 77.8848

EPHEMERIS_TYPE = 0
CLASSIFICATION_TYPE = U
NORAD_CAT_ID   = 66078
ELEMENT_SET_NO = 999
REV_AT_EPOCH   = 409
BSTAR          = -.26186E-1
MEAN_MOTION_DOT = -.1952978E-1
MEAN_MOTION_DDOT = 0

