STARLINK-35401          
1 66067U 25235K   25310.75001156 -.01950907  00000+0 -26156-1 0  9991
2 66067  53.1598  99.2775 0001198  61.4303  61.9816 15.60722699  4049
STARLINK-35422          
1 66068U 25235L   25310.75001156 -.01952508  00000+0 -26178-1 0  9995
2 66068  53.1597  99.2735 0001268  64.5720  60.7567 15.60723910  4047
STARLINK-35279          
1 66069U 25235M   25310.75001156 -.01948707  00000+0 -26124-1 0  9993
2 66069  53.1598  99.2697 0001245  65.2432  62.0053 15.60720152  4094
STARLINK-35295          
1 66070U 25235N   25310.75001156 -.01951583  00000+0 -26164-1 0  9995
2 66070  53.1598  99.2626 0001272  65.0026  66.0756 15.60724071  4093
STARLINK-35323          
1 66071U 25235P   25310.75001156 -.01951620  00000+0 -26166-1 0  9990
2 66071  53.1600  99.2656 0001258  65.0739  64.0892 15.60723090  4095
STARLINK-35299          
1 66072U 25235Q   25310.75001156 -.01950808  00000+0 -26154-1 0  9995
2 66072  53.1599  99.2575 0001217  65.0140  67.9830 15.60722392  4092
STARLINK-35274          
1 66073U 25235R   25310.75001156 -.01946403  00000+0 -26090-1 0  9991
2 66073  53.1600  99.2533 0001276  62.8003  72.1145 15.60719299  4097
STARLINK-35321          
1 66074U 25235S   25310.75001156 -.01952402  00000+0 -26178-1 0  9995
2 66074  53.1599  99.2490 0001218  69.0180  67.8125 15.60723492  4097
STARLINK-35131          
1 66075U 25235T   25310.75001156 -.01953263  00000+0 -26190-1 0  9996
2 66075  53.1597  99.2364 0001246  69.7143  72.8664 15.60724295  4099
STARLINK-34801          
1 66076U 25235U   25310.75001156 -.01951264  00000+0 -26160-1 0  9993
2 66076  53.1600  99.2449 0001270  63.5197  75.2270 15.60722985  4091
STARLINK-35129          
1 66077U 25235V   25310.75001156 -.01950966  00000+0 -26157-1 0  9998
2 66077  53.1597  99.2416 0001196  66.8851  73.7792 15.60722451  4091
STARLINK-35116          
1 66078U 25235W   25310.75001156 -.01952978  00000+0 -26186-1 0  9996
2 66078  53.1600  99.2278 0001221  68.5291  77.8848 15.60724286  4094
